CCSDS_OMM_VERS = 2.0
CREATION_DATE  = 
ORIGINATOR     = 

OBJECT_NAME    = ATLAS CENTAUR R/B
OBJECT_ID      = 1972-065B
CENTER_NAME    = EARTH
REF_FRAME      = TEME
TIME_SYSTEM    = UTC
MEAN_ELEMENT_THEORY = SGP/SGP4

EPOCH          = 2025-11-01T13:39:54.299808
MEAN_MOTION    = 14.77242546
ECCENTRICITY   = .00336539
INCLINATION    = 35.0027
RA_OF_ASC_NODE = 336.3362
ARG_OF_PERICENTER = 11.4308
MEAN_ANOMALY   = 348.7150

EPHEMERIS_TYPE = 0
CLASSIFICATION_TYPE = U
NORAD_CAT_ID   = 6155
ELEMENT_SET_NO = 999
REV_AT_EPOCH   = 82230
BSTAR          = .24080487E-3
MEAN_MOTION_DOT = .1727E-4
MEAN_MOTION_DDOT = 0

CCSDS_OMM_VERS = 2.0
CREATION_DATE  = 
ORIGINATOR     = 

OBJECT_NAME    = SL-8 R/B
OBJECT_ID      = 1975-112B
CENTER_NAME    = EARTH
REF_FRAME      = TEME
TIME_SYSTEM    = UTC
MEAN_ELEMENT_THEORY = SGP/SGP4

EPOCH          = 2025-11-01T13:54:48.878496
MEAN_MOTION    = 14.38104555
ECCENTRICITY   = .00152876
INCLINATION    = 74.0599
RA_OF_ASC_NODE = 254.5607
ARG_OF_PERICENTER = 12.9355
MEAN_ANOMALY   = 347.2188

EPHEMERIS_TYPE = 0
CLASSIFICATION_TYPE = U
NORAD_CAT_ID   = 8459
ELEMENT_SET_NO = 999
REV_AT_EPOCH   = 61345
BSTAR          = .12742067E-3
MEAN_MOTION_DOT = .361E-5
MEAN_MOTION_DDOT = 0

CCSDS_OMM_VERS = 2.0
CREATION_DATE  = 
ORIGINATOR     = 

OBJECT_NAME    = SL-3 R/B
OBJECT_ID      = 1977-057B
CENTER_NAME    = EARTH
REF_FRAME      = TEME
TIME_SYSTEM    = UTC
MEAN_ELEMENT_THEORY = SGP/SGP4

EPOCH          = 2025-11-01T13:21:08.627040
MEAN_MOTION    = 15.41639140
ECCENTRICITY   = .00084306
INCLINATION    = 97.5675
RA_OF_ASC_NODE = 107.3266
ARG_OF_PERICENTER = 33.4559
MEAN_ANOMALY   = 326.7218

EPHEMERIS_TYPE = 0
CLASSIFICATION_TYPE = U
NORAD_CAT_ID   = 10114
ELEMENT_SET_NO = 999
REV_AT_EPOCH   = 64856
BSTAR          = .2728959E-3
MEAN_MOTION_DOT = .1142E-3
MEAN_MOTION_DDOT = 0

CCSDS_OMM_VERS = 2.0
CREATION_DATE  = 
ORIGINATOR     = 

OBJECT_NAME    = SEASAT 1
OBJECT_ID      = 1978-064A
CENTER_NAME    = EARTH
REF_FRAME      = TEME
TIME_SYSTEM    = UTC
MEAN_ELEMENT_THEORY = SGP/SGP4

EPOCH          = 2025-11-01T12:30:15.082560
MEAN_MOTION    = 14.45990386
ECCENTRICITY   = .00025753
INCLINATION    = 108.0051
RA_OF_ASC_NODE = 216.5767
ARG_OF_PERICENTER = 261.1249
MEAN_ANOMALY   = 98.9605

EPHEMERIS_TYPE = 0
CLASSIFICATION_TYPE = U
NORAD_CAT_ID   = 10967
ELEMENT_SET_NO = 999
REV_AT_EPOCH   = 48798
BSTAR          = .18128576E-3
MEAN_MOTION_DOT = .509E-5
MEAN_MOTION_DDOT = 0

CCSDS_OMM_VERS = 2.0
CREATION_DATE  = 
ORIGINATOR     = 

OBJECT_NAME    = SL-14 R/B
OBJECT_ID      = 1979-011B
CENTER_NAME    = EARTH
REF_FRAME      = TEME
TIME_SYSTEM    = UTC
MEAN_ELEMENT_THEORY = SGP/SGP4

EPOCH          = 2025-11-01T11:14:04.879392
MEAN_MOTION    = 14.91691558
ECCENTRICITY   = .00174465
INCLINATION    = 82.5262
RA_OF_ASC_NODE = 218.1768
ARG_OF_PERICENTER = 122.3559
MEAN_ANOMALY   = 237.9352

EPHEMERIS_TYPE = 0
CLASSIFICATION_TYPE = U
NORAD_CAT_ID   = 11267
ELEMENT_SET_NO = 999
REV_AT_EPOCH   = 50966
BSTAR          = .86570876E-4
MEAN_MOTION_DOT = .898E-5
MEAN_MOTION_DDOT = 0

CCSDS_OMM_VERS = 2.0
CREATION_DATE  = 
ORIGINATOR     = 

OBJECT_NAME    = SL-8 R/B
OBJECT_ID      = 1979-089B
CENTER_NAME    = EARTH
REF_FRAME      = TEME
TIME_SYSTEM    = UTC
MEAN_ELEMENT_THEORY = SGP/SGP4

EPOCH          = 2025-11-01T11:53:33.948384
MEAN_MOTION    = 14.42240996
ECCENTRICITY   = .00155001
INCLINATION    = 74.0687
RA_OF_ASC_NODE = 328.3170
ARG_OF_PERICENTER = 178.0636
MEAN_ANOMALY   = 182.0584

EPHEMERIS_TYPE = 0
CLASSIFICATION_TYPE = U
NORAD_CAT_ID   = 11574
ELEMENT_SET_NO = 999
REV_AT_EPOCH   = 41762
BSTAR          = .12781292E-3
MEAN_MOTION_DOT = .396E-5
MEAN_MOTION_DDOT = 0

CCSDS_OMM_VERS = 2.0
CREATION_DATE  = 
ORIGINATOR     = 

OBJECT_NAME    = SL-14 R/B
OBJECT_ID      = 1980-005B
CENTER_NAME    = EARTH
REF_FRAME      = TEME
TIME_SYSTEM    = UTC
MEAN_ELEMENT_THEORY = SGP/SGP4

EPOCH          = 2025-11-01T14:21:27.753696
MEAN_MOTION    = 14.90705178
ECCENTRICITY   = .00146956
INCLINATION    = 82.5145
RA_OF_ASC_NODE = 68.7081
ARG_OF_PERICENTER = 227.0637
MEAN_ANOMALY   = 132.9351

EPHEMERIS_TYPE = 0
CLASSIFICATION_TYPE = U
NORAD_CAT_ID   = 11672
ELEMENT_SET_NO = 999
REV_AT_EPOCH   = 45740
BSTAR          = .10133243E-3
MEAN_MOTION_DOT = .1021E-4
MEAN_MOTION_DDOT = 0

CCSDS_OMM_VERS = 2.0
CREATION_DATE  = 
ORIGINATOR     = 

OBJECT_NAME    = SL-8 R/B
OBJECT_ID      = 1981-003B
CENTER_NAME    = EARTH
REF_FRAME      = TEME
TIME_SYSTEM    = UTC
MEAN_ELEMENT_THEORY = SGP/SGP4

EPOCH          = 2025-11-01T12:59:22.701408
MEAN_MOTION    = 15.04792082
ECCENTRICITY   = .02840822
INCLINATION    = 82.9331
RA_OF_ASC_NODE = 48.0534
ARG_OF_PERICENTER = 262.7219
MEAN_ANOMALY   = 94.1642

EPHEMERIS_TYPE = 0
CLASSIFICATION_TYPE = U
NORAD_CAT_ID   = 12139
ELEMENT_SET_NO = 999
REV_AT_EPOCH   = 29536
BSTAR          = .63622003E-3
MEAN_MOTION_DOT = .22693E-3
MEAN_MOTION_DDOT = 0

CCSDS_OMM_VERS = 2.0
CREATION_DATE  = 
ORIGINATOR     = 

OBJECT_NAME    = SL-3 R/B
OBJECT_ID      = 1981-046B
CENTER_NAME    = EARTH
REF_FRAME      = TEME
TIME_SYSTEM    = UTC
MEAN_ELEMENT_THEORY = SGP/SGP4

EPOCH          = 2025-11-01T16:01:38.783136
MEAN_MOTION    = 15.38335452
ECCENTRICITY   = .00208302
INCLINATION    = 81.2311
RA_OF_ASC_NODE = 83.0171
ARG_OF_PERICENTER = 104.4203
MEAN_ANOMALY   = 255.9351

EPHEMERIS_TYPE = 0
CLASSIFICATION_TYPE = U
NORAD_CAT_ID   = 12465
ELEMENT_SET_NO = 999
REV_AT_EPOCH   = 41872
BSTAR          = .35456184E-3
MEAN_MOTION_DOT = .13532E-3
MEAN_MOTION_DDOT = 0

CCSDS_OMM_VERS = 2.0
CREATION_DATE  = 
ORIGINATOR     = 

OBJECT_NAME    = METEOR PRIRODA
OBJECT_ID      = 1981-065A
CENTER_NAME    = EARTH
REF_FRAME      = TEME
TIME_SYSTEM    = UTC
MEAN_ELEMENT_THEORY = SGP/SGP4

EPOCH          = 2025-11-01T14:36:51.853536
MEAN_MOTION    = 16.00061085
ECCENTRICITY   = .00017943
INCLINATION    = 97.4652
RA_OF_ASC_NODE = 8.9062
ARG_OF_PERICENTER = 297.3947
MEAN_ANOMALY   = 62.7149

EPHEMERIS_TYPE = 0
CLASSIFICATION_TYPE = U
NORAD_CAT_ID   = 12585
ELEMENT_SET_NO = 999
REV_AT_EPOCH   = 42420
BSTAR          = .6364045E-3
MEAN_MOTION_DOT = .322901E-2
MEAN_MOTION_DDOT = .45890863E-4

CCSDS_OMM_VERS = 2.0
CREATION_DATE  = 
ORIGINATOR     = 

OBJECT_NAME    = SL-3 R/B
OBJECT_ID      = 1981-103B
CENTER_NAME    = EARTH
REF_FRAME      = TEME
TIME_SYSTEM    = UTC
MEAN_ELEMENT_THEORY = SGP/SGP4

EPOCH          = 2025-11-01T13:53:02.920128
MEAN_MOTION    = 15.19528185
ECCENTRICITY   = .00175516
INCLINATION    = 81.1626
RA_OF_ASC_NODE = 3.5335
ARG_OF_PERICENTER = 17.1952
MEAN_ANOMALY   = 342.9869

EPHEMERIS_TYPE = 0
CLASSIFICATION_TYPE = U
NORAD_CAT_ID   = 12904
ELEMENT_SET_NO = 999
REV_AT_EPOCH   = 95376
BSTAR          = .27528093E-3
MEAN_MOTION_DOT = .5896E-4
MEAN_MOTION_DDOT = 0

CCSDS_OMM_VERS = 2.0
CREATION_DATE  = 
ORIGINATOR     = 

OBJECT_NAME    = SL-3 R/B
OBJECT_ID      = 1982-013B
CENTER_NAME    = EARTH
REF_FRAME      = TEME
TIME_SYSTEM    = UTC
MEAN_ELEMENT_THEORY = SGP/SGP4

EPOCH          = 2025-11-01T14:05:52.592064
MEAN_MOTION    = 15.20549502
ECCENTRICITY   = .00215086
INCLINATION    = 81.1732
RA_OF_ASC_NODE = 310.7681
ARG_OF_PERICENTER = 249.9317
MEAN_ANOMALY   = 109.9599

EPHEMERIS_TYPE = 0
CLASSIFICATION_TYPE = U
NORAD_CAT_ID   = 13068
ELEMENT_SET_NO = 999
REV_AT_EPOCH   = 38487
BSTAR          = .21803453E-3
MEAN_MOTION_DOT = .4825E-4
MEAN_MOTION_DDOT = 0

