ATLAS CENTAUR R/B       
1 06155U 72065B   25305.56937847  .00001727  00000+0  24080-3 0  9994
2 06155  35.0027 336.3362 0033653  11.4308 348.7150 14.77242546822304
SL-8 R/B                
1 08459U 75112B   25305.57973239  .00000361  00000+0  12742-3 0  9990
2 08459  74.0599 254.5607 0015287  12.9355 347.2188 14.38104555613457
SL-3 R/B                
1 10114U 77057B   25305.55634985  .00011420  00000+0  27290-3 0  9993
2 10114  97.5675 107.3266 0008430  33.4559 326.7218 15.41639140648569
SEASAT 1                
1 10967U 78064A   25305.52100790  .00000509  00000+0  18129-3 0  9994
2 10967 108.0051 216.5767 0002575 261.1249  98.9605 14.45990386487980
SL-14 R/B               
1 11267U 79011B   25305.46811203  .00000898  00000+0  86571-4 0  9990
2 11267  82.5262 218.1768 0017446 122.3559 237.9352 14.91691558509662
SL-8 R/B                
1 11574U 79089B   25305.49553181  .00000396  00000+0  12781-3 0  9991
2 11574  74.0687 328.3170 0015500 178.0636 182.0584 14.42240996417627
SL-14 R/B               
1 11672U 80005B   25305.59823789  .00001021  00000+0  10133-3 0  9990
2 11672  82.5145  68.7081 0014695 227.0637 132.9351 14.90705178457402
SL-8 R/B                
1 12139U 81003B   25305.54123497  .00022693  00000+0  63622-3 0  9991
2 12139  82.9331  48.0534 0284082 262.7219  94.1642 15.04792082295360
SL-3 R/B                
1 12465U 81046B   25305.66780999  .00013532  00000+0  35456-3 0  9995
2 12465  81.2311  83.0171 0020830 104.4203 255.9351 15.38335452418724
METEOR PRIRODA          
1 12585U 81065A   25305.60893349  .00322901  45891-4  63640-3 0  9998
2 12585  97.4652   8.9062 0001794 297.3947  62.7149 16.00061085424201
SL-3 R/B                
1 12904U 81103B   25305.57850602  .00005896  00000+0  27528-3 0  9991
2 12904  81.1626   3.5335 0017551  17.1952 342.9869 15.19528185953761
SL-3 R/B                
1 13068U 82013B   25305.58741426  .00004825  00000+0  21803-3 0  9999
2 13068  81.1732 310.7681 0021508 249.9317 109.9599 15.20549502384874
